{"type": "FeatureCollection", "features": [ {"type": "Feature", "properties": {"norad_id": 43566, "name": "GSAT0219 (GALILEO 23)", "group": "gnss", "lat": -19.47923363676007, "lon": -26.059372045616396, "alt_km": 23213.930557092608, "timestamp": "2025-12-02T08:59:32.957400+00:00", "meta": {"OBJECT_NAME": "GSAT0219 (GALILEO 23)", "OBJECT_ID": "2018-060C", "EPOCH": "2025-11-30T01:35:38.037408", "MEAN_MOTION": 1.70475682, "ECCENTRICITY": 0.00057799, "INCLINATION": 57.2334, "RA_OF_ASC_NODE": 347.165, "ARG_OF_PERICENTER": 285.7575, "MEAN_ANOMALY": 74.2225, "EPHEMERIS_TYPE": 0, "CLASSIFICATION_TYPE": "U", "NORAD_CAT_ID": 43566, "ELEMENT_SET_NO": 999, "REV_AT_EPOCH": 4579, "BSTAR": 0, "MEAN_MOTION_DOT": -5.6e-07, "MEAN_MOTION_DDOT": 0}, "tle": {"line1": "1 43566U 18060C   25334.06641247 -.00000056  00000+0  00000+0 0  9996", "line2": "2 43566  57.2334 347.1650 0005779 285.7575  74.2225  1.70475682 45790"}}, "geometry": {"type": "Point", "coordinates": [-26.059372045616396, -19.47923363676007]}}, {"type": "Feature", "properties": {"norad_id": 43567, "name": "GSAT0220 (GALILEO 24)", "group": "gnss", "lat": -17.509052227726603, "lon": 178.83640309253693, "alt_km": 23221.384485554685, "timestamp": "2025-12-02T08:59:32.957412+00:00", "meta": {"OBJECT_NAME": "GSAT0220 (GALILEO 24)", "OBJECT_ID": "2018-060D", "EPOCH": "2025-11-30T20:58:25.885344", "MEAN_MOTION": 1.70475446, "ECCENTRICITY": 0.00061088, "INCLINATION": 57.233, "RA_OF_ASC_NODE": 347.1438, "ARG_OF_PERICENTER": 281.1334, "MEAN_ANOMALY": 78.841, "EPHEMERIS_TYPE": 0, "CLASSIFICATION_TYPE": "U", "NORAD_CAT_ID": 43567, "ELEMENT_SET_NO": 999, "REV_AT_EPOCH": 4579, "BSTAR": 0, "MEAN_MOTION_DOT": -5.8e-07, "MEAN_MOTION_DDOT": 0}, "tle": {"line1": "1 43567U 18060D   25334.87391071 -.00000058  00000+0  00000+0 0  9995", "line2": "2 43567  57.2330 347.1438 0006108 281.1334  78.8410  1.70475446 45795"}}, "geometry": {"type": "Point", "coordinates": [178.83640309253693, -17.509052227726603]}}, {"type": "Feature", "properties": {"norad_id": 43581, "name": "BEIDOU-3 M5 (C23)", "group": "gnss", "lat": -32.40604093990541, "lon": 36.386958853278, "alt_km": 21536.02015867896, "timestamp": "2025-12-02T08:59:32.957423+00:00", "meta": {"OBJECT_NAME": "BEIDOU-3 M5 (C23)", "OBJECT_ID": "2018-062A", "EPOCH": "2025-11-30T23:17:32.661024", "MEAN_MOTION": 1.8622853, "ECCENTRICITY": 0.0002124, "INCLINATION": 54.0891, "RA_OF_ASC_NODE": 189.0442, "ARG_OF_PERICENTER": 349.7703, "MEAN_ANOMALY": 10.3183, "EPHEMERIS_TYPE": 0, "CLASSIFICATION_TYPE": "U", "NORAD_CAT_ID": 43581, "ELEMENT_SET_NO": 999, "REV_AT_EPOCH": 4994, "BSTAR": 0, "MEAN_MOTION_DOT": 1.17e-06, "MEAN_MOTION_DDOT": 0}, "tle": {"line1": "1 43581U 18062A   25334.97051691  .00000117  00000+0  00000+0 0  9990", "line2": "2 43581  54.0891 189.0442 0002124 349.7703  10.3183  1.86228530 49947"}}, "geometry": {"type": "Point", "coordinates": [36.386958853278, -32.40604093990541]}}, {"type": "Feature", "properties": {"norad_id": 43582, "name": "BEIDOU-3 M6 (C24)", "group": "gnss", "lat": -36.20324109889205, "lon": 156.9648439423997, "alt_km": 21533.433201223677, "timestamp": "2025-12-02T08:59:32.957435+00:00", "meta": {"OBJECT_NAME": "BEIDOU-3 M6 (C24)", "OBJECT_ID": "2018-062B", "EPOCH": "2025-11-29T18:14:01.707936", "MEAN_MOTION": 1.86229617, "ECCENTRICITY": 0.00076529, "INCLINATION": 54.0888, "RA_OF_ASC_NODE": 189.0746, "ARG_OF_PERICENTER": 45.4041, "MEAN_ANOMALY": 314.7474, "EPHEMERIS_TYPE": 0, "CLASSIFICATION_TYPE": "U", "NORAD_CAT_ID": 43582, "ELEMENT_SET_NO": 999, "REV_AT_EPOCH": 4992, "BSTAR": 0, "MEAN_MOTION_DOT": 1.07e-06, "MEAN_MOTION_DDOT": 0}, "tle": {"line1": "1 43582U 18062B   25333.75974199  .00000107  00000+0  00000+0 0  9992", "line2": "2 43582  54.0888 189.0746 0007652  45.4041 314.7474  1.86229617 49926"}}, "geometry": {"type": "Point", "coordinates": [156.9648439423997, -36.20324109889205]}}, {"type": "Feature", "properties": {"norad_id": 43602, "name": "BEIDOU-3 M12 (C26)", "group": "gnss", "lat": -4.107296783815219, "lon": -175.24864364668215, "alt_km": 21511.269382850554, "timestamp": "2025-12-02T08:59:32.957446+00:00", "meta": {"OBJECT_NAME": "BEIDOU-3 M12 (C26)", "OBJECT_ID": "2018-067A", "EPOCH": "2025-12-01T20:17:11.919840", "MEAN_MOTION": 1.86227624, "ECCENTRICITY": 0.0009143, "INCLINATION": 54.1831, "RA_OF_ASC_NODE": 187.7331, "ARG_OF_PERICENTER": 40.4315, "MEAN_ANOMALY": 319.7307, "EPHEMERIS_TYPE": 0, "CLASSIFICATION_TYPE": "U", "NORAD_CAT_ID": 43602, "ELEMENT_SET_NO": 999, "REV_AT_EPOCH": 4944, "BSTAR": 0, "MEAN_MOTION_DOT": 1.22e-06, "MEAN_MOTION_DDOT": 0}, "tle": {"line1": "1 43602U 18067A   25335.84527685  .00000122  00000+0  00000+0 0  9993", "line2": "2 43602  54.1831 187.7331 0009143  40.4315 319.7307  1.86227624 49442"}}, "geometry": {"type": "Point", "coordinates": [-175.24864364668215, -4.107296783815219]}}, {"type": "Feature", "properties": {"norad_id": 43603, "name": "BEIDOU-3 M11 (C25)", "group": "gnss", "lat": -53.839019196524234, "lon": 88.84002889320571, "alt_km": 21544.405656307667, "timestamp": "2025-12-02T08:59:32.957457+00:00", "meta": {"OBJECT_NAME": "BEIDOU-3 M11 (C25)", "OBJECT_ID": "2018-067B", "EPOCH": "2025-11-29T19:57:56.721600", "MEAN_MOTION": 1.86227148, "ECCENTRICITY": 0.00055574, "INCLINATION": 54.1805, "RA_OF_ASC_NODE": 187.7656, "ARG_OF_PERICENTER": 35.6802, "MEAN_ANOMALY": 324.4454, "EPHEMERIS_TYPE": 0, "CLASSIFICATION_TYPE": "U", "NORAD_CAT_ID": 43603, "ELEMENT_SET_NO": 999, "REV_AT_EPOCH": 4943, "BSTAR": 0, "MEAN_MOTION_DOT": 1.1e-06, "MEAN_MOTION_DDOT": 0}, "tle": {"line1": "1 43603U 18067B   25333.83190650  .00000110  00000+0  00000+0 0  9996", "line2": "2 43603  54.1805 187.7656 0005557  35.6802 324.4454  1.86227148 49432"}}, "geometry": {"type": "Point", "coordinates": [88.84002889320571, -53.839019196524234]}}, {"type": "Feature", "properties": {"norad_id": 43622, "name": "BEIDOU-3 M13 (C32)", "group": "gnss", "lat": -49.66153718722197, "lon": 17.87789211739638, "alt_km": 21518.112721071193, "timestamp": "2025-12-02T08:59:32.957468+00:00", "meta": {"OBJECT_NAME": "BEIDOU-3 M13 (C32)", "OBJECT_ID": "2018-072A", "EPOCH": "2025-12-01T22:28:14.581632", "MEAN_MOTION": 1.8623073, "ECCENTRICITY": 0.0005591, "INCLINATION": 56.4497, "RA_OF_ASC_NODE": 69.1783, "ARG_OF_PERICENTER": 298.7186, "MEAN_ANOMALY": 61.2282, "EPHEMERIS_TYPE": 0, "CLASSIFICATION_TYPE": "U", "NORAD_CAT_ID": 43622, "ELEMENT_SET_NO": 999, "REV_AT_EPOCH": 4898, "BSTAR": 0, "MEAN_MOTION_DOT": -4.4e-07, "MEAN_MOTION_DDOT": 0}, "tle": {"line1": "1 43622U 18072A   25335.93627988 -.00000044  00000+0  00000+0 0  9992", "line2": "2 43622  56.4497  69.1783 0005591 298.7186  61.2282  1.86230730 48989"}}, "geometry": {"type": "Point", "coordinates": [17.87789211739638, -49.66153718722197]}}, {"type": "Feature", "properties": {"norad_id": 43623, "name": "BEIDOU-3 M14 (C33)", "group": "gnss", "lat": 19.933126933991787, "lon": 83.0594459837249, "alt_km": 21520.082604239997, "timestamp": "2025-12-02T08:59:32.957479+00:00", "meta": {"OBJECT_NAME": "BEIDOU-3 M14 (C33)", "OBJECT_ID": "2018-072B", "EPOCH": "2025-12-01T19:14:30.967584", "MEAN_MOTION": 1.86230723, "ECCENTRICITY": 0.0003032, "INCLINATION": 56.4513, "RA_OF_ASC_NODE": 69.1766, "ARG_OF_PERICENTER": 336.0963, "MEAN_ANOMALY": 23.8927, "EPHEMERIS_TYPE": 0, "CLASSIFICATION_TYPE": "U", "NORAD_CAT_ID": 43623, "ELEMENT_SET_NO": 999, "REV_AT_EPOCH": 4897, "BSTAR": 0, "MEAN_MOTION_DOT": -4.3e-07, "MEAN_MOTION_DDOT": 0}, "tle": {"line1": "1 43623U 18072B   25335.80174731 -.00000043  00000+0  00000+0 0  9991", "line2": "2 43623  56.4513  69.1766 0003032 336.0963  23.8927  1.86230723 48978"}}, "geometry": {"type": "Point", "coordinates": [83.0594459837249, 19.933126933991787]}}, {"type": "Feature", "properties": {"norad_id": 43647, "name": "BEIDOU-3 M16 (C35)", "group": "gnss", "lat": -53.46243494752442, "lon": -129.31877855222746, "alt_km": 21537.101252759705, "timestamp": "2025-12-02T08:59:32.957492+00:00", "meta": {"OBJECT_NAME": "BEIDOU-3 M16 (C35)", "OBJECT_ID": "2018-078A", "EPOCH": "2025-12-01T23:02:01.408992", "MEAN_MOTION": 1.86232129, "ECCENTRICITY": 0.0006947, "INCLINATION": 54.272, "RA_OF_ASC_NODE": 306.8982, "ARG_OF_PERICENTER": 18.3506, "MEAN_ANOMALY": 341.6639, "EPHEMERIS_TYPE": 0, "CLASSIFICATION_TYPE": "U", "NORAD_CAT_ID": 43647, "ELEMENT_SET_NO": 999, "REV_AT_EPOCH": 4848, "BSTAR": 0, "MEAN_MOTION_DOT": -6.1e-07, "MEAN_MOTION_DDOT": 0}, "tle": {"line1": "1 43647U 18078A   25335.95973853 -.00000061  00000+0  00000+0 0  9991", "line2": "2 43647  54.2720 306.8982 0006947  18.3506 341.6639  1.86232129 48481"}}, "geometry": {"type": "Point", "coordinates": [-129.31877855222746, -53.46243494752442]}}, {"type": "Feature", "properties": {"norad_id": 43648, "name": "BEIDOU-3 M15 (C34)", "group": "gnss", "lat": -9.425849352247566, "lon": 133.72704475830457, "alt_km": 21539.305909211536, "timestamp": "2025-12-02T08:59:32.957503+00:00", "meta": {"OBJECT_NAME": "BEIDOU-3 M15 (C34)", "OBJECT_ID": "2018-078B", "EPOCH": "2025-12-01T00:21:40.976640", "MEAN_MOTION": 1.86232, "ECCENTRICITY": 0.0003569, "INCLINATION": 54.2686, "RA_OF_ASC_NODE": 306.9322, "ARG_OF_PERICENTER": 17.0419, "MEAN_ANOMALY": 342.9634, "EPHEMERIS_TYPE": 0, "CLASSIFICATION_TYPE": "U", "NORAD_CAT_ID": 43648, "ELEMENT_SET_NO": 999, "REV_AT_EPOCH": 4848, "BSTAR": 0, "MEAN_MOTION_DOT": -5.6e-07, "MEAN_MOTION_DDOT": 0}, "tle": {"line1": "1 43648U 18078B   25335.01505760 -.00000056  00000+0  00000+0 0  9991", "line2": "2 43648  54.2686 306.9322 0003569  17.0419 342.9634  1.86232000 48485"}}, "geometry": {"type": "Point", "coordinates": [133.72704475830457, -9.425849352247566]}}]}